ORBCOMM FM103           
1 40091U 14040F   25115.56207393  .00001498  00000+0  35896-3 0  9997
2 40091  47.0056 266.3180 0001258  22.8797 337.2144 14.58079697556427
ORBCOMM FM119           
1 41180U 15081B   25115.22810533  .00001415  00000+0  34125-3 0  9995
2 41180  47.0000  86.2641 0001043 220.7581 139.3227 14.58049657497991
ORBCOMM FM105           
1 41181U 15081C   25115.61011760  .00000688  00000+0  23932-3 0  9999
2 41181  47.0011  84.3065 0000917  63.5153 296.5821 14.45171888493147
ORBCOMM FM110           
1 41182U 15081D   25115.56278572  .00001495  00000+0  35880-3 0  9992
2 41182  47.0007 174.7780 0002962 279.7601  80.2950 14.58004698496841
ORBCOMM FM118           
1 41183U 15081E   25114.79292039  .00001460  00000+0  34940-3 0  9999
2 41183  47.0020 178.8640 0003998 247.7801 112.2661 14.58263628496658
ORBCOMM FM112           
1 41184U 15081F   25115.61599748  .00001453  00000+0  34920-3 0  9999
2 41184  46.9989  83.5947 0000198 140.1687 219.9213 14.58067780497997
